EARTHCARE               
1 59908U 24101A   24292.30807106  .00034031  00000+0  47199-3 0  9996
2 59908  96.9938  57.3959 0001397  95.7743 264.3672 15.56982497 22134
